HAWK-A                  
1 43765U 18099H   26188.42975348  .00004969  00000+0  19950-3 0  9993
2 43765  97.3902 240.4034 0033919 211.6002 148.3199 15.24897073416182
HAWK-B                  
1 43794U 18099AN  26188.14703259  .00004629  00000+0  19709-3 0  9999
2 43794  97.3948 239.4973 0030668 231.0979 128.7522 15.23054425416076
HAWK-C                  
1 43799U 18099AT  26188.09833466  .00006382  00000+0  22825-3 0  9993
2 43799  97.3878 241.0870 0039526 212.7144 147.1647 15.28404200416955
HAWK-2C                 
1 47502U 21006CT  26188.10294113  .00004881  00000+0  14630-3 0  9990
2 47502  97.2268 232.0168 0008438 124.2013 236.0032 15.34919530302553
HAWK-2A                 
1 47505U 21006CW  26188.10524384  .00004879  00000+0  14619-3 0  9993
2 47505  97.2309 232.7085 0007917 127.1585 233.0383 15.34933694302557
HAWK-2B                 
1 47508U 21006CZ  26188.09943542  .00005634  00000+0  16777-3 0  9992
2 47508  97.2179 231.0031 0008490 125.6837 234.5198 15.35057195302552
HAWK-3B                 
1 48931U 21059BE  26187.50439762  .00036099  00000+0  28563-3 0  9995
2 48931  97.6647  26.0618 0003758 231.7433 128.3491 15.71268243280888
HAWK-3C                 
1 48948U 21059BX  26188.01356433  .00035456  00000+0  28021-3 0  9998
2 48948  97.6768  32.3408 0003979 231.9425 128.1479 15.71298826280968
HAWK-3A                 
1 48957U 21059CG  26188.01345058  .00036405  00000+0  28767-3 0  9991
2 48957  97.6708  29.5295 0003887 234.0895 126.0006 15.71296947280962
HAWK-5C                 
1 52754U 22057Y   26188.42163654  .00013756  00000+0  22921-3 0  9995
2 52754  97.6616 349.4067 0003603  15.7135 344.4228 15.52127476229489
HAWK-5B                 
1 52756U 22057AA  26188.42144565  .00013702  00000+0  22825-3 0  9991
2 52756  97.6632 347.7585 0004175   3.3588 356.7691 15.52132556229480
HAWK-5A                 
1 52757U 22057AB  26188.42125098  .00013718  00000+0  22853-3 0  9990
2 52757  97.6627 348.5893 0004091   8.2298 351.9020 15.52132132229488
HAWK-6B                 
1 55324U 23011A   26188.51051738  .00002705  00000+0  12040-3 0  9994
2 55324  40.4971 233.5181 0003026 198.0696 162.0006 15.23109588190949
HAWK-6C                 
1 55326U 23011C   26188.50989634  .00002923  00000+0  12945-3 0  9996
2 55326  40.4958 230.3577 0003395 184.7750 175.3028 15.23109837190951
HAWK-6A                 
1 55327U 23011D   26188.50992955  .00002904  00000+0  12864-3 0  9996
2 55327  40.4968 231.9843 0002933 183.2670 176.8121 15.23110974190952
HAWK-7A                 
1 56191U 23054P   26188.35306109  .00004025  00000+0  15193-3 0  9990
2 56191  97.2674  75.1775 0002330   6.4575 353.6694 15.27577059180100
